{"type": "FeatureCollection", "features": [ {"type": "Feature", "properties": {"norad_id": 35462, "name": "COSMOS 2251 DEB", "group": "cosmos-2251-debris", "lat": 9.198742636592165, "lon": 84.37732821202961, "alt_km": 836.423883560934, "timestamp": "2025-12-13T15:35:12.500281+00:00", "meta": {"OBJECT_NAME": "COSMOS 2251 DEB", "OBJECT_ID": "1993-036ALG", "EPOCH": "2025-12-11T03:59:29.501088", "MEAN_MOTION": 14.29274316, "ECCENTRICITY": 0.00868722, "INCLINATION": 74.0365, "RA_OF_ASC_NODE": 271.5419, "ARG_OF_PERICENTER": 307.0131, "MEAN_ANOMALY": 52.3091, "EPHEMERIS_TYPE": 0, "CLASSIFICATION_TYPE": "U", "NORAD_CAT_ID": 35462, "ELEMENT_SET_NO": 999, "REV_AT_EPOCH": 66358, "BSTAR": 0.0025437171, "MEAN_MOTION_DOT": 6.718e-05, "MEAN_MOTION_DDOT": 0}, "tle": {"line1": "1 35462U 93036ALG 25345.16631367  .00006718  00000+0  25437-2 0  9997", "line2": "2 35462  74.0365 271.5419 0086872 307.0131  52.3091 14.29274316663589"}}, "geometry": {"type": "Point", "coordinates": [84.37732821202961, 9.198742636592165]}}, {"type": "Feature", "properties": {"norad_id": 35465, "name": "COSMOS 2251 DEB", "group": "cosmos-2251-debris", "lat": -71.91663181876609, "lon": 133.84119989187124, "alt_km": 740.5283635173946, "timestamp": "2025-12-13T15:35:12.500291+00:00", "meta": {"OBJECT_NAME": "COSMOS 2251 DEB", "OBJECT_ID": "1993-036ALK", "EPOCH": "2025-12-11T14:05:22.272576", "MEAN_MOTION": 14.44314277, "ECCENTRICITY": 0.0064083, "INCLINATION": 73.9997, "RA_OF_ASC_NODE": 199.178, "ARG_OF_PERICENTER": 359.7129, "MEAN_ANOMALY": 0.398, "EPHEMERIS_TYPE": 0, "CLASSIFICATION_TYPE": "U", "NORAD_CAT_ID": 35465, "ELEMENT_SET_NO": 999, "REV_AT_EPOCH": 87225, "BSTAR": 0.00056971702, "MEAN_MOTION_DOT": 1.982e-05, "MEAN_MOTION_DDOT": 0}, "tle": {"line1": "1 35465U 93036ALK 25345.58706334  .00001982  00000+0  56972-3 0  9990", "line2": "2 35465  73.9997 199.1780 0064083 359.7129   0.3980 14.44314277872252"}}, "geometry": {"type": "Point", "coordinates": [133.84119989187124, -71.91663181876609]}}, {"type": "Feature", "properties": {"norad_id": 35469, "name": "COSMOS 2251 DEB", "group": "cosmos-2251-debris", "lat": 44.76020898260668, "lon": -174.34858595836565, "alt_km": 682.8020342142472, "timestamp": "2025-12-13T15:35:12.500300+00:00", "meta": {"OBJECT_NAME": "COSMOS 2251 DEB", "OBJECT_ID": "1993-036ALP", "EPOCH": "2025-12-10T09:08:19.185504", "MEAN_MOTION": 14.49816344, "ECCENTRICITY": 0.00770564, "INCLINATION": 74.0175, "RA_OF_ASC_NODE": 28.3045, "ARG_OF_PERICENTER": 184.2675, "MEAN_ANOMALY": 175.7838, "EPHEMERIS_TYPE": 0, "CLASSIFICATION_TYPE": "U", "NORAD_CAT_ID": 35469, "ELEMENT_SET_NO": 999, "REV_AT_EPOCH": 88077, "BSTAR": 0.00017261696, "MEAN_MOTION_DOT": 6.62e-06, "MEAN_MOTION_DDOT": 0}, "tle": {"line1": "1 35469U 93036ALP 25344.38077761  .00000662  00000+0  17262-3 0  9999", "line2": "2 35469  74.0175  28.3045 0077056 184.2675 175.7838 14.49816344880776"}}, "geometry": {"type": "Point", "coordinates": [-174.34858595836565, 44.76020898260668]}}, {"type": "Feature", "properties": {"norad_id": 35475, "name": "COSMOS 2251 DEB", "group": "cosmos-2251-debris", "lat": 49.067927778458774, "lon": -176.8461152952049, "alt_km": 671.5136628928058, "timestamp": "2025-12-13T15:35:12.500310+00:00", "meta": {"OBJECT_NAME": "COSMOS 2251 DEB", "OBJECT_ID": "1993-036ALV", "EPOCH": "2025-12-12T21:22:53.239872", "MEAN_MOTION": 14.69737717, "ECCENTRICITY": 0.0020625, "INCLINATION": 74.0217, "RA_OF_ASC_NODE": 165.3315, "ARG_OF_PERICENTER": 238.4011, "MEAN_ANOMALY": 121.5147, "EPHEMERIS_TYPE": 0, "CLASSIFICATION_TYPE": "U", "NORAD_CAT_ID": 35475, "ELEMENT_SET_NO": 999, "REV_AT_EPOCH": 65619, "BSTAR": 0.0026715277, "MEAN_MOTION_DOT": 0.00015985, "MEAN_MOTION_DDOT": 0}, "tle": {"line1": "1 35475U 93036ALV 25346.89089398  .00015985  00000+0  26715-2 0  9999", "line2": "2 35475  74.0217 165.3315 0020625 238.4011 121.5147 14.69737717656195"}}, "geometry": {"type": "Point", "coordinates": [-176.8461152952049, 49.067927778458774]}}, {"type": "Feature", "properties": {"norad_id": 35476, "name": "COSMOS 2251 DEB", "group": "cosmos-2251-debris", "lat": -72.45963831606755, "lon": -6.255493390163342, "alt_km": 656.5267588054585, "timestamp": "2025-12-13T15:35:12.500319+00:00", "meta": {"OBJECT_NAME": "COSMOS 2251 DEB", "OBJECT_ID": "1993-036ALW", "EPOCH": "2025-12-12T06:03:58.512384", "MEAN_MOTION": 14.7566701, "ECCENTRICITY": 0.0017575, "INCLINATION": 73.9781, "RA_OF_ASC_NODE": 61.8707, "ARG_OF_PERICENTER": 43.3307, "MEAN_ANOMALY": 17.2447, "EPHEMERIS_TYPE": 0, "CLASSIFICATION_TYPE": "U", "NORAD_CAT_ID": 35476, "ELEMENT_SET_NO": 999, "REV_AT_EPOCH": 87880, "BSTAR": 0.0026204434, "MEAN_MOTION_DOT": 0.00017965, "MEAN_MOTION_DDOT": 0}, "tle": {"line1": "1 35476U 93036ALW 25346.25276056  .00017965  00000+0  26204-2 0  9992", "line2": "2 35476  73.9781  61.8707 0017575  43.3307  17.2447 14.75667010878809"}}, "geometry": {"type": "Point", "coordinates": [-6.255493390163342, -72.45963831606755]}}, {"type": "Feature", "properties": {"norad_id": 35580, "name": "COSMOS 2251 DEB", "group": "cosmos-2251-debris", "lat": 67.03027652505773, "lon": -139.874888034786, "alt_km": 1004.460605087459, "timestamp": "2025-12-13T15:35:12.500329+00:00", "meta": {"OBJECT_NAME": "COSMOS 2251 DEB", "OBJECT_ID": "1993-036ALX", "EPOCH": "2025-12-10T21:17:20.461632", "MEAN_MOTION": 13.83850084, "ECCENTRICITY": 0.0281508, "INCLINATION": 73.9016, "RA_OF_ASC_NODE": 181.8733, "ARG_OF_PERICENTER": 187.4326, "MEAN_ANOMALY": 172.2587, "EPHEMERIS_TYPE": 0, "CLASSIFICATION_TYPE": "U", "NORAD_CAT_ID": 35580, "ELEMENT_SET_NO": 999, "REV_AT_EPOCH": 62231, "BSTAR": 0.0026077, "MEAN_MOTION_DOT": 3.904e-05, "MEAN_MOTION_DDOT": 0}, "tle": {"line1": "1 35580U 93036ALX 25344.88704238  .00003904  00000+0  26077-2 0  9999", "line2": "2 35580  73.9016 181.8733 0281508 187.4326 172.2587 13.83850084622311"}}, "geometry": {"type": "Point", "coordinates": [-139.874888034786, 67.03027652505773]}}, {"type": "Feature", "properties": {"norad_id": 35583, "name": "COSMOS 2251 DEB", "group": "cosmos-2251-debris", "lat": 38.32199644752072, "lon": -136.2772501057875, "alt_km": 1326.109530988073, "timestamp": "2025-12-13T15:35:12.500339+00:00", "meta": {"OBJECT_NAME": "COSMOS 2251 DEB", "OBJECT_ID": "1993-036AMA", "EPOCH": "2025-12-12T21:39:43.638624", "MEAN_MOTION": 13.55335405, "ECCENTRICITY": 0.03854721, "INCLINATION": 73.9165, "RA_OF_ASC_NODE": 211.7522, "ARG_OF_PERICENTER": 236.072, "MEAN_ANOMALY": 120.3183, "EPHEMERIS_TYPE": 0, "CLASSIFICATION_TYPE": "U", "NORAD_CAT_ID": 35583, "ELEMENT_SET_NO": 999, "REV_AT_EPOCH": 82414, "BSTAR": 0.00094320334, "MEAN_MOTION_DOT": 1.028e-05, "MEAN_MOTION_DDOT": 0}, "tle": {"line1": "1 35583U 93036AMA 25346.90258841  .00001028  00000+0  94320-3 0  9993", "line2": "2 35583  73.9165 211.7522 0385472 236.0720 120.3183 13.55335405824147"}}, "geometry": {"type": "Point", "coordinates": [-136.2772501057875, 38.32199644752072]}}, {"type": "Feature", "properties": {"norad_id": 35585, "name": "COSMOS 2251 DEB", "group": "cosmos-2251-debris", "lat": 56.38281692050726, "lon": 12.5104359397948, "alt_km": 1190.4855508097926, "timestamp": "2025-12-13T15:35:12.500349+00:00", "meta": {"OBJECT_NAME": "COSMOS 2251 DEB", "OBJECT_ID": "1993-036AMC", "EPOCH": "2025-12-11T11:41:44.780640", "MEAN_MOTION": 13.75243352, "ECCENTRICITY": 0.03105022, "INCLINATION": 73.9732, "RA_OF_ASC_NODE": 350.5027, "ARG_OF_PERICENTER": 263.0041, "MEAN_ANOMALY": 255.5124, "EPHEMERIS_TYPE": 0, "CLASSIFICATION_TYPE": "U", "NORAD_CAT_ID": 35585, "ELEMENT_SET_NO": 999, "REV_AT_EPOCH": 64046, "BSTAR": 0.0018464241, "MEAN_MOTION_DOT": 2.49e-05, "MEAN_MOTION_DDOT": 0}, "tle": {"line1": "1 35585U 93036AMC 25345.48732385  .00002490  00000+0  18464-2 0  9995", "line2": "2 35585  73.9732 350.5027 0310502 263.0041 255.5124 13.75243352640467"}}, "geometry": {"type": "Point", "coordinates": [12.5104359397948, 56.38281692050726]}}, {"type": "Feature", "properties": {"norad_id": 35586, "name": "COSMOS 2251 DEB", "group": "cosmos-2251-debris", "lat": 8.208351960514655, "lon": 118.65192385880293, "alt_km": 765.723030661391, "timestamp": "2025-12-13T15:35:12.500359+00:00", "meta": {"OBJECT_NAME": "COSMOS 2251 DEB", "OBJECT_ID": "1993-036AMD", "EPOCH": "2025-12-09T15:43:44.050080", "MEAN_MOTION": 13.52082947, "ECCENTRICITY": 0.0404687, "INCLINATION": 74.02, "RA_OF_ASC_NODE": 307.4172, "ARG_OF_PERICENTER": 183.4058, "MEAN_ANOMALY": 354.3417, "EPHEMERIS_TYPE": 0, "CLASSIFICATION_TYPE": "U", "NORAD_CAT_ID": 35586, "ELEMENT_SET_NO": 999, "REV_AT_EPOCH": 60340, "BSTAR": 0.00055296, "MEAN_MOTION_DOT": 5.88e-06, "MEAN_MOTION_DDOT": 0}, "tle": {"line1": "1 35586U 93036AMD 25343.65537095  .00000588  00000+0  55296-3 0  9995", "line2": "2 35586  74.0200 307.4172 0404687 183.4058 354.3417 13.52082947603405"}}, "geometry": {"type": "Point", "coordinates": [118.65192385880293, 8.208351960514655]}}, {"type": "Feature", "properties": {"norad_id": 35587, "name": "COSMOS 2251 DEB", "group": "cosmos-2251-debris", "lat": 65.13267954117455, "lon": 94.88845263077526, "alt_km": 721.1810391790586, "timestamp": "2025-12-13T15:35:12.500368+00:00", "meta": {"OBJECT_NAME": "COSMOS 2251 DEB", "OBJECT_ID": "1993-036AME", "EPOCH": "2025-12-12T21:18:47.401632", "MEAN_MOTION": 14.71521652, "ECCENTRICITY": 0.01026064, "INCLINATION": 74.0049, "RA_OF_ASC_NODE": 58.1365, "ARG_OF_PERICENTER": 245.7643, "MEAN_ANOMALY": 113.2781, "EPHEMERIS_TYPE": 0, "CLASSIFICATION_TYPE": "U", "NORAD_CAT_ID": 35587, "ELEMENT_SET_NO": 999, "REV_AT_EPOCH": 66348, "BSTAR": 0.00043835007, "MEAN_MOTION_DOT": 2.92e-05, "MEAN_MOTION_DDOT": 0}, "tle": {"line1": "1 35587U 93036AME 25346.88804863  .00002920  00000+0  43835-3 0  9992", "line2": "2 35587  74.0049  58.1365 0102606 245.7643 113.2781 14.71521652663482"}}, "geometry": {"type": "Point", "coordinates": [94.88845263077526, 65.13267954117455]}}]}